[
  {
    "OBJECT_NAME": "METOP-C",
    "OBJECT_ID": "2018-087A",
    "EPOCH": "2025-05-17T20:07:26.192640",
    "MEAN_MOTION": 14.21478458,
    "ECCENTRICITY": 8.58e-05,
    "INCLINATION": 98.7167,
    "RA_OF_ASC_NODE": 198.4553,
    "ARG_OF_PERICENTER": 161.9186,
    "MEAN_ANOMALY": 198.2022,
    "EPHEMERIS_TYPE": 0,
    "CLASSIFICATION_TYPE": "U",
    "NORAD_CAT_ID": 43689,
    "ELEMENT_SET_NO": 999,
    "REV_AT_EPOCH": 33866,
    "BSTAR": 9.7282e-05,
    "MEAN_MOTION_DOT": 1.69e-06,
    "MEAN_MOTION_DDOT": 0
  },
  {
    "OBJECT_NAME": "GEO-KOMPSAT-2A",
    "OBJECT_ID": "2018-100A",
    "EPOCH": "2025-05-17T16:19:38.627616",
    "MEAN_MOTION": 1.00271376,
    "ECCENTRICITY": 0.0002377,
    "INCLINATION": 0.0556,
    "RA_OF_ASC_NODE": 106.2333,
    "ARG_OF_PERICENTER": 329.6649,
    "MEAN_ANOMALY": 172.909,
    "EPHEMERIS_TYPE": 0,
    "CLASSIFICATION_TYPE": "U",
    "NORAD_CAT_ID": 43823,
    "ELEMENT_SET_NO": 999,
    "REV_AT_EPOCH": 2369,
    "BSTAR": 0,
    "MEAN_MOTION_DOT": -3.32e-06,
    "MEAN_MOTION_DDOT": 0
  },
  {
    "OBJECT_NAME": "METEOR-M2 2",
    "OBJECT_ID": "2019-038A",
    "EPOCH": "2025-05-17T21:01:20.126496",
    "MEAN_MOTION": 14.24202422,
    "ECCENTRICITY": 0.0002392,
    "INCLINATION": 98.8733,
    "RA_OF_ASC_NODE": 115.3354,
    "ARG_OF_PERICENTER": 82.6327,
    "MEAN_ANOMALY": 277.5123,
    "EPHEMERIS_TYPE": 0,
    "CLASSIFICATION_TYPE": "U",
    "NORAD_CAT_ID": 44387,
    "ELEMENT_SET_NO": 999,
    "REV_AT_EPOCH": 30502,
    "BSTAR": 8.7886e-05,
    "MEAN_MOTION_DOT": 1.57e-06,
    "MEAN_MOTION_DDOT": 0
  },
  {
    "OBJECT_NAME": "ARKTIKA-M 1",
    "OBJECT_ID": "2021-016A",
    "EPOCH": "2025-05-15T05:32:10.889376",
    "MEAN_MOTION": 2.00601146,
    "ECCENTRICITY": 0.7093089,
    "INCLINATION": 63.1468,
    "RA_OF_ASC_NODE": 111.89,
    "ARG_OF_PERICENTER": 268.592,
    "MEAN_ANOMALY": 16.7157,
    "EPHEMERIS_TYPE": 0,
    "CLASSIFICATION_TYPE": "U",
    "NORAD_CAT_ID": 47719,
    "ELEMENT_SET_NO": 999,
    "REV_AT_EPOCH": 3080,
    "BSTAR": 0,
    "MEAN_MOTION_DOT": 6.5e-07,
    "MEAN_MOTION_DDOT": 0
  },
  {
    "OBJECT_NAME": "FENGYUN 3E",
    "OBJECT_ID": "2021-062A",
    "EPOCH": "2025-05-17T21:00:16.534368",
    "MEAN_MOTION": 14.19864274,
    "ECCENTRICITY": 0.0002443,
    "INCLINATION": 98.7421,
    "RA_OF_ASC_NODE": 140.8798,
    "ARG_OF_PERICENTER": 124.6289,
    "MEAN_ANOMALY": 235.5118,
    "EPHEMERIS_TYPE": 0,
    "CLASSIFICATION_TYPE": "U",
    "NORAD_CAT_ID": 49008,
    "ELEMENT_SET_NO": 999,
    "REV_AT_EPOCH": 20048,
    "BSTAR": 2.4995e-05,
    "MEAN_MOTION_DOT": 9e-08,
    "MEAN_MOTION_DDOT": 0
  },
  {
    "OBJECT_NAME": "GOES 18",
    "OBJECT_ID": "2022-021A",
    "EPOCH": "2025-05-17T16:58:59.886048",
    "MEAN_MOTION": 1.00272485,
    "ECCENTRICITY": 4.85e-05,
    "INCLINATION": 0.0112,
    "RA_OF_ASC_NODE": 60.3501,
    "ARG_OF_PERICENTER": 55.3178,
    "MEAN_ANOMALY": 237.7434,
    "EPHEMERIS_TYPE": 0,
    "CLASSIFICATION_TYPE": "U",
    "NORAD_CAT_ID": 51850,
    "ELEMENT_SET_NO": 999,
    "REV_AT_EPOCH": 1184,
    "BSTAR": 0,
    "MEAN_MOTION_DOT": 1.08e-06,
    "MEAN_MOTION_DDOT": 0
  },
  {
    "OBJECT_NAME": "NOAA 21 (JPSS-2)",
    "OBJECT_ID": "2022-150A",
    "EPOCH": "2025-05-17T13:04:37.712352",
    "MEAN_MOTION": 14.1953224,
    "ECCENTRICITY": 7.26e-05,
    "INCLINATION": 98.7264,
    "RA_OF_ASC_NODE": 76.7527,
    "ARG_OF_PERICENTER": 198.6749,
    "MEAN_ANOMALY": 161.44,
    "EPHEMERIS_TYPE": 0,
    "CLASSIFICATION_TYPE": "U",
    "NORAD_CAT_ID": 54234,
    "ELEMENT_SET_NO": 999,
    "REV_AT_EPOCH": 13041,
    "BSTAR": 7.071e-05,
    "MEAN_MOTION_DOT": 1.05e-06,
    "MEAN_MOTION_DDOT": 0
  },
  {
    "OBJECT_NAME": "METEOSAT-12 (MTG-I1)",
    "OBJECT_ID": "2022-170C",
    "EPOCH": "2025-05-17T19:20:47.800320",
    "MEAN_MOTION": 1.00274961,
    "ECCENTRICITY": 9.1e-05,
    "INCLINATION": 0.6702,
    "RA_OF_ASC_NODE": 37.9345,
    "ARG_OF_PERICENTER": 16.9454,
    "MEAN_ANOMALY": 110.7984,
    "EPHEMERIS_TYPE": 0,
    "CLASSIFICATION_TYPE": "U",
    "NORAD_CAT_ID": 54743,
    "ELEMENT_SET_NO": 999,
    "REV_AT_EPOCH": 900,
    "BSTAR": 0,
    "MEAN_MOTION_DOT": 5e-08,
    "MEAN_MOTION_DDOT": 0
  },
  {
    "OBJECT_NAME": "TIANMU-1 03",
    "OBJECT_ID": "2023-039A",
    "EPOCH": "2025-05-17T21:07:58.699200",
    "MEAN_MOTION": 15.34789567,
    "ECCENTRICITY": 0.0005304,
    "INCLINATION": 97.4993,
    "RA_OF_ASC_NODE": 296.0395,
    "ARG_OF_PERICENTER": 87.3487,
    "MEAN_ANOMALY": 272.8363,
    "EPHEMERIS_TYPE": 0,
    "CLASSIFICATION_TYPE": "U",
    "NORAD_CAT_ID": 55973,
    "ELEMENT_SET_NO": 999,
    "REV_AT_EPOCH": 11997,
    "BSTAR": 0.00042825,
    "MEAN_MOTION_DOT": 0.00014378,
    "MEAN_MOTION_DDOT": 0
  },
  {
    "OBJECT_NAME": "TIANMU-1 04",
    "OBJECT_ID": "2023-039B",
    "EPOCH": "2025-05-17T19:57:09.560160",
    "MEAN_MOTION": 15.35016065,
    "ECCENTRICITY": 0.0006035,
    "INCLINATION": 97.4921,
    "RA_OF_ASC_NODE": 295.2927,
    "ARG_OF_PERICENTER": 83.2029,
    "MEAN_ANOMALY": 276.9901,
    "EPHEMERIS_TYPE": 0,
    "CLASSIFICATION_TYPE": "U",
    "NORAD_CAT_ID": 55974,
    "ELEMENT_SET_NO": 999,
    "REV_AT_EPOCH": 11996,
    "BSTAR": 0.00042674,
    "MEAN_MOTION_DOT": 0.00014433,
    "MEAN_MOTION_DDOT": 0
  },
  {
    "OBJECT_NAME": "TIANMU-1 05",
    "OBJECT_ID": "2023-039C",
    "EPOCH": "2025-05-17T20:23:51.690912",
    "MEAN_MOTION": 15.3476452,
    "ECCENTRICITY": 0.0005042,
    "INCLINATION": 97.4969,
    "RA_OF_ASC_NODE": 295.7683,
    "ARG_OF_PERICENTER": 103.9577,
    "MEAN_ANOMALY": 256.2227,
    "EPHEMERIS_TYPE": 0,
    "CLASSIFICATION_TYPE": "U",
    "NORAD_CAT_ID": 55975,
    "ELEMENT_SET_NO": 999,
    "REV_AT_EPOCH": 11995,
    "BSTAR": 0.00043994,
    "MEAN_MOTION_DOT": 0.00014762,
    "MEAN_MOTION_DDOT": 0
  },
  {
    "OBJECT_NAME": "TIANMU-1 06",
    "OBJECT_ID": "2023-039D",
    "EPOCH": "2025-05-17T20:14:08.234304",
    "MEAN_MOTION": 15.35096252,
    "ECCENTRICITY": 0.0005503,
    "INCLINATION": 97.4982,
    "RA_OF_ASC_NODE": 296.0716,
    "ARG_OF_PERICENTER": 99.8518,
    "MEAN_ANOMALY": 260.3346,
    "EPHEMERIS_TYPE": 0,
    "CLASSIFICATION_TYPE": "U",
    "NORAD_CAT_ID": 55976,
    "ELEMENT_SET_NO": 999,
    "REV_AT_EPOCH": 11996,
    "BSTAR": 0.0004357,
    "MEAN_MOTION_DOT": 0.00014775,
    "MEAN_MOTION_DDOT": 0
  },
  {
    "OBJECT_NAME": "METEOR-M2 3",
    "OBJECT_ID": "2023-091A",
    "EPOCH": "2025-05-17T20:48:10.296576",
    "MEAN_MOTION": 14.23997918,
    "ECCENTRICITY": 0.0003066,
    "INCLINATION": 98.6625,
    "RA_OF_ASC_NODE": 194.6867,
    "ARG_OF_PERICENTER": 226.735,
    "MEAN_ANOMALY": 133.3573,
    "EPHEMERIS_TYPE": 0,
    "CLASSIFICATION_TYPE": "U",
    "NORAD_CAT_ID": 57166,
    "ELEMENT_SET_NO": 999,
    "REV_AT_EPOCH": 9825,
    "BSTAR": 2.6711e-05,
    "MEAN_MOTION_DOT": 1.8e-07,
    "MEAN_MOTION_DDOT": 0
  },
  {
    "OBJECT_NAME": "TIANMU-1 07",
    "OBJECT_ID": "2023-101A",
    "EPOCH": "2025-05-17T20:06:21.921408",
    "MEAN_MOTION": 15.24832384,
    "ECCENTRICITY": 0.0006166,
    "INCLINATION": 97.3118,
    "RA_OF_ASC_NODE": 192.4442,
    "ARG_OF_PERICENTER": 98.0193,
    "MEAN_ANOMALY": 262.1745,
    "EPHEMERIS_TYPE": 0,
    "CLASSIFICATION_TYPE": "U",
    "NORAD_CAT_ID": 57399,
    "ELEMENT_SET_NO": 999,
    "REV_AT_EPOCH": 10129,
    "BSTAR": 0.00033647,
    "MEAN_MOTION_DOT": 8.29e-05,
    "MEAN_MOTION_DDOT": 0
  },
  {
    "OBJECT_NAME": "TIANMU-1 08",
    "OBJECT_ID": "2023-101B",
    "EPOCH": "2025-05-17T20:52:18.410592",
    "MEAN_MOTION": 15.24838137,
    "ECCENTRICITY": 0.0008241,
    "INCLINATION": 97.3107,
    "RA_OF_ASC_NODE": 192.3065,
    "ARG_OF_PERICENTER": 100.8722,
    "MEAN_ANOMALY": 259.3444,
    "EPHEMERIS_TYPE": 0,
    "CLASSIFICATION_TYPE": "U",
    "NORAD_CAT_ID": 57400,
    "ELEMENT_SET_NO": 999,
    "REV_AT_EPOCH": 10129,
    "BSTAR": 0.00033005,
    "MEAN_MOTION_DOT": 8.135e-05,
    "MEAN_MOTION_DDOT": 0
  },
  {
    "OBJECT_NAME": "TIANMU-1 09",
    "OBJECT_ID": "2023-101C",
    "EPOCH": "2025-05-17T20:27:08.741664",
    "MEAN_MOTION": 15.24764349,
    "ECCENTRICITY": 0.0007398,
    "INCLINATION": 97.3062,
    "RA_OF_ASC_NODE": 191.9347,
    "ARG_OF_PERICENTER": 100.5771,
    "MEAN_ANOMALY": 259.6301,
    "EPHEMERIS_TYPE": 0,
    "CLASSIFICATION_TYPE": "U",
    "NORAD_CAT_ID": 57401,
    "ELEMENT_SET_NO": 999,
    "REV_AT_EPOCH": 10129,
    "BSTAR": 0.00033701,
    "MEAN_MOTION_DOT": 8.289e-05,
    "MEAN_MOTION_DDOT": 0
  },
  {
    "OBJECT_NAME": "TIANMU-1 10",
    "OBJECT_ID": "2023-101D",
    "EPOCH": "2025-05-17T21:13:46.965504",
    "MEAN_MOTION": 15.24747418,
    "ECCENTRICITY": 0.0009296,
    "INCLINATION": 97.3143,
    "RA_OF_ASC_NODE": 192.5965,
    "ARG_OF_PERICENTER": 100.5829,
    "MEAN_ANOMALY": 259.6456,
    "EPHEMERIS_TYPE": 0,
    "CLASSIFICATION_TYPE": "U",
    "NORAD_CAT_ID": 57402,
    "ELEMENT_SET_NO": 999,
    "REV_AT_EPOCH": 10129,
    "BSTAR": 0.00035376,
    "MEAN_MOTION_DOT": 8.753e-05,
    "MEAN_MOTION_DDOT": 1.5422e-08
  },
  {
    "OBJECT_NAME": "FENGYUN 3F",
    "OBJECT_ID": "2023-111A",
    "EPOCH": "2025-05-17T20:53:49.067520",
    "MEAN_MOTION": 14.20040019,
    "ECCENTRICITY": 0.00012,
    "INCLINATION": 98.7274,
    "RA_OF_ASC_NODE": 209.2397,
    "ARG_OF_PERICENTER": 137.4809,
    "MEAN_ANOMALY": 222.646,
    "EPHEMERIS_TYPE": 0,
    "CLASSIFICATION_TYPE": "U",
    "NORAD_CAT_ID": 57490,
    "ELEMENT_SET_NO": 999,
    "REV_AT_EPOCH": 9276,
    "BSTAR": 7.315e-05,
    "MEAN_MOTION_DOT": 1.12e-06,
    "MEAN_MOTION_DDOT": 0
  },
  {
    "OBJECT_NAME": "ARKTIKA-M 2",
    "OBJECT_ID": "2023-198A",
    "EPOCH": "2025-05-13T11:24:55.804032",
    "MEAN_MOTION": 2.00610792,
    "ECCENTRICITY": 0.687678,
    "INCLINATION": 63.2279,
    "RA_OF_ASC_NODE": 198.1732,
    "ARG_OF_PERICENTER": 268.9496,
    "MEAN_ANOMALY": 18.4324,
    "EPHEMERIS_TYPE": 0,
    "CLASSIFICATION_TYPE": "U",
    "NORAD_CAT_ID": 58584,
    "ELEMENT_SET_NO": 999,
    "REV_AT_EPOCH": 1030,
    "BSTAR": 0,
    "MEAN_MOTION_DOT": 2.02e-06,
    "MEAN_MOTION_DDOT": 0
  }
]